INTELSAT 1R (IS-1R)     
1 26608U 00072A   24020.63263204 -.00000141  00000+0  00000+0 0  9990
2 26608   5.8720  74.2852 0002160 233.5288 196.5555  1.00272581 32517
ANIK F1                 
1 26624U 00076A   24020.60712394 -.00000061  00000+0  00000+0 0  9999
2 26624   2.9213  85.5785 0003117 211.4236 291.8023  1.00271870 34332
USA 157 (MILSTAR-2 2)   
1 26715U 01009A   24020.59312372  .00000010  00000+0  00000+0 0  9990
2 26715  10.5900  24.5928 0003604 260.1426 283.9683  1.00273079 24141
INTELSAT 901 (IS-901)   
1 26824U 01024A   24020.45548135 -.00000198  00000+0  00000+0 0  9999
2 26824   0.0575 258.1231 0000873  38.7677 318.8918  1.00270036 14179
ASTRA 2C                
1 26853U 01025A   24020.45678365 -.00000260  00000+0  00000+0 0  9991
2 26853   5.9999  73.5730 0003309 229.3510 268.3079  1.00268254 36236
USA 159 (DSP 21)        
1 26880U 01033A   24020.43123355 -.00000301  00000+0  00000+0 0  9998
2 26880  11.9548  22.2246 0001042 344.7598 218.4782  1.00269580 24154
INTELSAT 902 (IS-902)   
1 26900U 01039A   24020.45095618 -.00000282  00000+0  00000+0 0  9997
2 26900   3.8804  82.4026 0002766 225.7517 283.4039  1.00270404 81886
USA 164 (MILSTAR-2 3)   
1 27168U 02001A   24020.17822679  .00000097  00000+0  00000+0 0  9991
2 27168  10.1430  26.5462 0099884 356.5205 179.0557  1.00274741 24145
INTELSAT 904 (IS-904)   
1 27380U 02007A   24020.45504624 -.00000215  00000+0  00000+0 0  9994
2 27380   4.7032  79.5578 0003145 221.4555 312.6093  1.00272093 42954
NSS-7                   
1 27414U 02019A   24020.45696074 -.00000162  00000+0  00000+0 0  9997
2 27414   7.2668  66.2214 0002647 251.3416 306.2509  1.00271192 79757
INTELSAT 905 (IS-905)   
1 27438U 02027A   24020.45609052 -.00000185  00000+0  00000+0 0  9997
2 27438   4.5278  80.2297 0003025 222.3226 316.4492  1.00270758 42554
GALAXY 3C (G-3C)        
1 27445U 02030A   24020.62542399 -.00000149  00000+0  00000+0 0  9998
2 27445   1.4671  88.8433 0001048 233.2002 287.7367  1.00271323 37685
INTELSAT 906 (IS-906)   
1 27513U 02041A   24020.40213640  .00000014  00000+0  00000+0 0  9996
2 27513   3.5540  83.6899 0005520 198.8929  45.6016  1.00272827 78217
TDRS 10                 
1 27566U 02055A   24020.47858351  .00000084  00000+0  00000+0 0  9997
2 27566   9.2816  46.4202 0005303 299.7444 134.3076  1.00270277 77422
NIMIQ 2                 
1 27632U 02062A   24020.46043785 -.00000069  00000+0  00000+0 0  9999
2 27632   7.3781  65.6145 0005460 223.8991 246.3425  1.00268876 35376
USA 167                 
1 27691U 03008A   24020.58828490  .00000048  00000+0  00000+0 0  9998
2 27691   9.1979  50.6270 0002803 237.1426 273.4170  1.00275862 24146
USA 169 (MILSTAR-2 4)   
1 27711U 03012A   24020.44450476 -.00000200  00000+0  00000+0 0  9997
2 27711  11.0024  36.4136 0097993 356.7580  38.2622  1.00270228 24148
HELLAS-SAT 2            
1 27811U 03020A   24019.95765671 -.00000083  00000+0  00000+0 0  9996
2 27811   5.1452  78.2114 0008212 210.0004 165.3326  1.00270834 34032
OPTUS C1                
1 27831U 03028B   24020.63199900 -.00000152  00000+0  00000+0 0  9996
2 27831   4.6690  79.9095 0006153 218.8886 203.8782  1.00269885 44257
GALAXY 23 (G-23)        
1 27854U 03034A   24020.59699851  .00000016  00000+0  00000+0 0  9991
2 27854   0.9204  91.1576 0002667 214.5075 267.8301  1.00272866 74939
USA 170                 
1 27875U 03040A   24016.82896696  .00000112  00000+0  00000+0 0  9995
2 27875   8.6090  55.6566 0002900 196.7275 176.9399  1.00478714 24120
GALAXY 13 (HORIZONS-1)  
1 27954U 03044A   24020.56820050  .00000137  00000+0  00000+0 0  9991
2 27954   0.0171 275.7998 0003324 266.3814 351.7898  1.00267193 37760
UFO 11 (USA 174)        
1 28117U 03057A   24020.11777997 -.00000102  00000+0  00000+0 0  9992
2 28117   7.8339  37.1324 0002316 262.7238 296.7776  1.00272565 73634
USA 176 (DSP 22)        
1 28158U 04004A   24020.54204378 -.00000220  00000+0  00000+0 0  9996
2 28158  10.8603  31.9353 0001927 250.8188 118.9530  1.00266912 24122
ABS-4 (MOBISAT-1)       
1 28184U 04007A   24020.24007654  .00000041  00000+0  00000+0 0  9993
2 28184   3.8005  82.5898 0006836 218.6739 325.2466  1.00273225 43524
EUTELSAT 7A             
1 28187U 04008A   24020.57831133  .00000105  00000+0  00000+0 0  9991
2 28187   3.5870  82.3063 0003139 222.5557 243.5372  1.00270872 72548
