OBJECT_NAME,OBJECT_ID,EPOCH,MEAN_MOTION,ECCENTRICITY,INCLINATION,RA_OF_ASC_NODE,ARG_OF_PERICENTER,MEAN_ANOMALY,EPHEMERIS_TYPE,CLASSIFICATION_TYPE,NORAD_CAT_ID,ELEMENT_SET_NO,REV_AT_EPOCH,BSTAR,MEAN_MOTION_DOT,MEAN_MOTION_DDOT
INTELSAT 1R (IS-1R),2000-072A,2024-01-20T15:10:59.408256,1.00272581,.000216,5.8720,74.2852,233.5288,196.5555,0,U,26608,999,3251,0,-.141E-5,0
ANIK F1,2000-076A,2024-01-20T14:34:15.508416,1.00271870,.0003117,2.9213,85.5785,211.4236,291.8023,0,U,26624,999,3433,0,-.61E-6,0
USA 157 (MILSTAR-2 2),2001-009A,2024-01-20T14:14:05.889408,1.00273079,.0003604,10.5900,24.5928,260.1426,283.9683,0,U,26715,999,2414,0,.1E-6,0
INTELSAT 901 (IS-901),2001-024A,2024-01-20T10:55:53.588640,1.00270036,.0000873,0.0575,258.1231,38.7677,318.8918,0,U,26824,999,1417,0,-.198E-5,0
ASTRA 2C,2001-025A,2024-01-20T10:57:46.107360,1.00268254,.0003309,5.9999,73.5730,229.3510,268.3079,0,U,26853,999,3623,0,-.26E-5,0
USA 159 (DSP 21),2001-033A,2024-01-20T10:20:58.578720,1.00269580,.0001042,11.9548,22.2246,344.7598,218.4782,0,U,26880,999,2415,0,-.301E-5,0
INTELSAT 902 (IS-902),2001-039A,2024-01-20T10:49:22.613952,1.00270404,.0002766,3.8804,82.4026,225.7517,283.4039,0,U,26900,999,8188,0,-.282E-5,0
USA 164 (MILSTAR-2 3),2002-001A,2024-01-20T04:16:38.794656,1.00274741,.0099884,10.1430,26.5462,356.5205,179.0557,0,U,27168,999,2414,0,.97E-6,0
INTELSAT 904 (IS-904),2002-007A,2024-01-20T10:55:15.995136,1.00272093,.0003145,4.7032,79.5578,221.4555,312.6093,0,U,27380,999,4295,0,-.215E-5,0
NSS-7,2002-019A,2024-01-20T10:58:01.407936,1.00271192,.0002647,7.2668,66.2214,251.3416,306.2509,0,U,27414,999,7975,0,-.162E-5,0
INTELSAT 905 (IS-905),2002-027A,2024-01-20T10:56:46.220928,1.00270758,.0003025,4.5278,80.2297,222.3226,316.4492,0,U,27438,999,4255,0,-.185E-5,0
GALAXY 3C (G-3C),2002-030A,2024-01-20T15:00:36.632736,1.00271323,.0001048,1.4671,88.8433,233.2002,287.7367,0,U,27445,999,7914,0,-.149E-5,0
INTELSAT 906 (IS-906),2002-041A,2024-01-20T09:39:04.584960,1.00272827,.000552,3.5540,83.6899,198.8929,45.6016,0,U,27513,999,7821,0,.14E-6,0
TDRS 10,2002-055A,2024-01-20T11:29:09.615264,1.00270277,.0005303,9.2816,46.4202,299.7444,134.3076,0,U,27566,999,7742,0,.84E-6,0
NIMIQ 2,2002-062A,2024-01-20T11:03:01.830240,1.00268876,.000546,7.3781,65.6145,223.8991,246.3425,0,U,27632,999,3537,0,-.69E-6,0
USA 167,2003-008A,2024-01-20T14:07:07.815360,1.00275862,.0002803,9.1979,50.6270,237.1426,273.4170,0,U,27691,999,2281,0,.48E-6,0
USA 169 (MILSTAR-2 4),2003-012A,2024-01-20T10:40:05.211264,1.00270228,.0097993,11.0024,36.4136,356.7580,38.2622,0,U,27711,999,2414,0,-.2E-5,0
HELLAS-SAT 2,2003-020A,2024-01-19T22:59:01.539744,1.00270834,.0008212,5.1452,78.2114,210.0004,165.3326,0,U,27811,999,7552,0,-.83E-6,0
OPTUS C1,2003-028B,2024-01-20T15:10:04.713600,1.00269885,.0006153,4.6690,79.9095,218.8886,203.8782,0,U,27831,999,4425,0,-.152E-5,0
GALAXY 23 (G-23),2003-034A,2024-01-20T14:19:40.671264,1.00272866,.0002667,0.9204,91.1576,214.5075,267.8301,0,U,27854,999,7493,0,.16E-6,0
USA 170,2003-040A,2024-01-16T19:53:42.745344,1.00478714,.00029,8.6090,55.6566,196.7275,176.9399,0,U,27875,999,2412,0,.112E-5,0
GALAXY 13 (HORIZONS-1),2003-044A,2024-01-20T13:38:12.523200,1.00267193,.0003324,0.0171,275.7998,266.3814,351.7898,0,U,27954,999,3776,0,.137E-5,0
UFO 11 (USA 174),2003-057A,2024-01-20T02:49:36.189408,1.00272565,.0002316,7.8339,37.1324,262.7238,296.7776,0,U,28117,999,7363,0,-.102E-5,0
USA 176 (DSP 22),2004-004A,2024-01-20T13:00:32.582592,1.00266912,.0001927,10.8603,31.9353,250.8188,118.9530,0,U,28158,999,2412,0,-.22E-5,0
ABS-4 (MOBISAT-1),2004-007A,2024-01-20T05:45:42.613056,1.00273225,.0006836,3.8005,82.5898,218.6739,325.2466,0,U,28184,999,4352,0,.41E-6,0
EUTELSAT 7A,2004-008A,2024-01-20T13:52:46.098912,1.00270872,.0003139,3.5870,82.3063,222.5557,243.5372,0,U,28187,999,7254,0,.105E-5,0
